*******************************************************************************
Ephemeris / WWW_USER Fri Apr  6 10:37:08 2018 Pasadena, USA      / Horizons    
*******************************************************************************
Target body name: 1P/Halley                       {source: JPL#J863/77}
Center body name: Solar System Barycenter (0)     {source: DE406}
Center-site name: BODY CENTER
*******************************************************************************
Start time      : A.D. 2000-Jan-01 00:00:00.0000 TDB
Stop  time      : A.D. 2005-Jan-01 00:00:00.0000 TDB
Step-size       : 7200 minutes
*******************************************************************************
Center geodetic : 0.00000000,0.00000000,0.0000000 {E-lon(deg),Lat(deg),Alt(km)}
Center cylindric: 0.00000000,0.00000000,0.0000000 {E-lon(deg),Dxy(km),Dz(km)}
Center radii    : (undefined)                                                  
Small perturbers: Yes                             {source: SB406-CPV-2}
Output units    : AU-D                                                         
Output type     : GEOMETRIC cartesian states
Output format   : 2 (position and velocity)
Reference frame : ICRF/J2000.0                                                 
Coordinate systm: Ecliptic and Mean Equinox of Reference Epoch                 
*******************************************************************************
Initial IAU76/J2000 heliocentric ecliptic osculating elements (au, days, deg.):
  EPOCH=  2449400.5 ! 1994-Feb-17.0000000 (TDB)    RMSW= n.a.                  
   EC= .9671429084623044   QR= .5859781115169086   TP= 2446467.3953170511      
   OM= 58.42008097656843   W= 111.3324851045177    IN= 162.2626905791606       
  Equivalent ICRF heliocentric equatorial cartesian coordinates (au, au/d):
   X=-1.394097492221407E+01  Y= 1.280566418073994E+01  Z=-6.838705058662126E-01
  VX=-2.114527120886761E-03 VY= 3.184092376402889E-03 VZ= 2.042731155152628E-04
Comet physical (GM= km^3/s^2; RAD= km):                                        
   GM= n.a.                RAD= 5.5                                            
   M1=  5.5      M2=  13.6     k1=  8.     k2=  5.      PHCOF=  .030           
Comet non-gravitational force model (AMRAT=m^2/kg;A1-A3=au/d^2;DT=days;R0=au): 
   AMRAT=  0.                                      DT=  0.                     
   A1= 2.69646383822E-10   A2= 1.554613374174E-10  A3= 0.                      
 Standard model:                                                               
   ALN=  .1112620426   NK=  4.6142   NM=  2.15     NN=  5.093    R0=  2.808    
*******************************************************************************
JDTDB
   X     Y     Z
   VX    VY    VZ
*******************************************************************************
$$SOE
2452594.500000000 = A.D. 2002-Nov-16 00:00:00.0000 TDB 
  -1.849475486950266E+01  1.910910175938836E+01 -8.233092414786189E+00
  -9.073115922815990E-04  1.887765856820291E-03 -5.614734395137871E-04
2452599.500000000 = A.D. 2002-Nov-21 00:00:00.0000 TDB 
  -1.849928825255390E+01  1.911853730847645E+01 -8.235898368317471E+00
  -9.060418116554049E-04  1.886453913224087E-03 -5.609080455000097E-04
2452604.500000000 = A.D. 2002-Nov-26 00:00:00.0000 TDB 
  -1.850381528945180E+01  1.912796629986735E+01 -8.238701495965488E+00
  -9.047731305788786E-04  1.885142777677597E-03 -5.603430860665086E-04
2452609.500000000 = A.D. 2002-Dec-01 00:00:00.0000 TDB 
  -1.850833598568864E+01  1.913738873759741E+01 -8.241501799901032E+00
  -9.035055468736291E-04  1.883832448636255E-03 -5.597785603706124E-04
2452614.500000000 = A.D. 2002-Dec-06 00:00:00.0000 TDB 
  -1.851285034674586E+01  1.914680462569532E+01 -8.244299282290692E+00
  -9.022390583671307E-04  1.882522924561037E-03 -5.592144675726892E-04
2452619.500000000 = A.D. 2002-Dec-11 00:00:00.0000 TDB 
  -1.851735837809404E+01  1.915621396818207E+01 -8.247093945296863E+00
  -9.009736628927282E-04  1.881214203916107E-03 -5.586508068350167E-04
2452624.500000000 = A.D. 2002-Dec-16 00:00:00.0000 TDB 
  -1.852186008519291E+01  1.916561676907098E+01 -8.249885791077748E+00
  -8.997093582898805E-04  1.879906285170322E-03 -5.580875773226161E-04
2452629.500000000 = A.D. 2002-Dec-21 00:00:00.0000 TDB 
  -1.852635547349146E+01  1.917501303236773E+01 -8.252674821787403E+00
  -8.984461424025853E-04  1.878599166796972E-03 -5.575247782024803E-04
2452634.500000000 = A.D. 2002-Dec-26 00:00:00.0000 TDB 
  -1.853084454842788E+01  1.918440276207036E+01 -8.255461039575710E+00
  -8.971840130813476E-04  1.877292847273703E-03 -5.569624086443568E-04
2452639.500000000 = A.D. 2002-Dec-31 00:00:00.0000 TDB 
  -1.853532731542964E+01  1.919378596216934E+01 -8.258244446588403E+00
  -8.959229681821952E-04  1.875987325082800E-03 -5.564004678204749E-04
2452644.500000000 = A.D. 2003-Jan-05 00:00:00.0000 TDB 
  -1.853980377991351E+01  1.920316263664755E+01 -8.261025044967093E+00
  -8.946630055660499E-04  1.874682598709984E-03 -5.558389549047528E-04
2452649.500000000 = A.D. 2003-Jan-10 00:00:00.0000 TDB 
  -1.854427394728555E+01  1.921253278948029E+01 -8.263802836849258E+00
  -8.934041230996263E-04  1.873378666645853E-03 -5.552778690738217E-04
2452654.500000000 = A.D. 2003-Jan-15 00:00:00.0000 TDB 
  -1.854873782294120E+01  1.922189642463534E+01 -8.266577824368268E+00
  -8.921463186547890E-04  1.872075527385192E-03 -5.547172095064494E-04
2452659.500000000 = A.D. 2003-Jan-20 00:00:00.0000 TDB 
  -1.855319541226526E+01  1.923125354607298E+01 -8.269350009653396E+00
  -8.908895901089361E-04  1.870773179426609E-03 -5.541569753835802E-04
2452664.500000000 = A.D. 2003-Jan-25 00:00:00.0000 TDB 
  -1.855764672063193E+01  1.924060415774595E+01 -8.272119394829817E+00
  -8.896339353445407E-04  1.869471621273074E-03 -5.535971658883497E-04
2452669.500000000 = A.D. 2003-Jan-30 00:00:00.0000 TDB 
  -1.856209175340482E+01  1.924994826359956E+01 -8.274885982018633E+00
  -8.883793522493022E-04  1.868170851431582E-03 -5.530377802060285E-04
2452674.500000000 = A.D. 2003-Feb-04 00:00:00.0000 TDB 
  -1.856653051593703E+01  1.925928586757164E+01 -8.277649773336879E+00
  -8.871258387160750E-04  1.866870868413097E-03 -5.524788175239613E-04
2452679.500000000 = A.D. 2003-Feb-09 00:00:00.0000 TDB 
  -1.857096301357108E+01  1.926861697359259E+01 -8.280410770897525E+00
  -8.858733926428447E-04  1.865571670732385E-03 -5.519202770314826E-04
2452684.500000000 = A.D. 2003-Feb-14 00:00:00.0000 TDB 
  -1.857538925163906E+01  1.927794158558540E+01 -8.283168976809495E+00
  -8.846220119326506E-04  1.864273256908070E-03 -5.513621579199244E-04
2452689.500000000 = A.D. 2003-Feb-19 00:00:00.0000 TDB 
  -1.857980923546253E+01  1.928725970746564E+01 -8.285924393177682E+00
  -8.833716944932657E-04  1.862975625462377E-03 -5.508044593823584E-04
2452694.500000000 = A.D. 2003-Feb-24 00:00:00.0000 TDB 
  -1.858422297035263E+01  1.929657134314153E+01 -8.288677022102938E+00
  -8.821224382390731E-04  1.861678774922138E-03 -5.502471806148996E-04
2452699.500000000 = A.D. 2003-Mar-01 00:00:00.0000 TDB 
  -1.858863046161009E+01  1.930587649651392E+01 -8.291426865682110E+00
  -8.808742410882610E-04  1.860382703817203E-03 -5.496903208147405E-04
2452704.500000000 = A.D. 2003-Mar-06 00:00:00.0000 TDB 
  -1.859303171452523E+01  1.931517517147632E+01 -8.294173926008032E+00
  -8.796271009645581E-04  1.859087410681204E-03 -5.491338791812782E-04
2452709.500000000 = A.D. 2003-Mar-11 00:00:00.0000 TDB 
  -1.859742673437799E+01  1.932446737191491E+01 -8.296918205169538E+00
  -8.783810157968497E-04  1.857792894052307E-03 -5.485778549162868E-04
2452714.500000000 = A.D. 2003-Mar-16 00:00:00.0000 TDB 
  -1.860181552643801E+01  1.933375310170859E+01 -8.299659705251480E+00
  -8.771359835191359E-04  1.856499152471831E-03 -5.480222472232861E-04
2452719.500000000 = A.D. 2003-Mar-21 00:00:00.0000 TDB 
  -1.860619809596457E+01  1.934303236472895E+01 -8.302398428334731E+00
  -8.758920020706300E-04  1.855206184485006E-03 -5.474670553079333E-04
2452724.500000000 = A.D. 2003-Mar-26 00:00:00.0000 TDB 
  -1.861057444820667E+01  1.935230516484034E+01 -8.305134376496202E+00
  -8.746490693951978E-04  1.853913988640872E-03 -5.469122783777283E-04
2452729.500000000 = A.D. 2003-Mar-31 00:00:00.0000 TDB 
  -1.861494458840306E+01  1.936157150589985E+01 -8.307867551808833E+00
  -8.734071834420514E-04  1.852622563492159E-03 -5.463579156422850E-04
2452734.500000000 = A.D. 2003-Apr-05 00:00:00.0000 TDB 
  -1.861930852178222E+01  1.937083139175735E+01 -8.310597956341633E+00
  -8.721663421653209E-04  1.851331907595374E-03 -5.458039663131767E-04
2452739.500000000 = A.D. 2003-Apr-10 00:00:00.0000 TDB 
  -1.862366625356244E+01  1.938008482625549E+01 -8.313325592159662E+00
  -8.709265435241398E-04  1.850042019510563E-03 -5.452504296038935E-04
2452744.500000000 = A.D. 2003-Apr-15 00:00:00.0000 TDB 
  -1.862801778895179E+01  1.938933181322975E+01 -8.316050461324064E+00
  -8.696877854825954E-04  1.848752897801550E-03 -5.446973047299141E-04
2452749.500000000 = A.D. 2003-Apr-20 00:00:00.0000 TDB 
  -1.863236313314821E+01  1.939857235650841E+01 -8.318772565892051E+00
  -8.684500660098051E-04  1.847464541035755E-03 -5.441445909086699E-04
2452754.500000000 = A.D. 2003-Apr-25 00:00:00.0000 TDB 
  -1.863670229133946E+01  1.940780645991263E+01 -8.321491907916936E+00
  -8.672133830794401E-04  1.846176947784351E-03 -5.435922873594343E-04
2452759.500000000 = A.D. 2003-Apr-30 00:00:00.0000 TDB 
  -1.864103526870321E+01  1.941703412725640E+01 -8.324208489448134E+00
  -8.659777346702313E-04  1.844890116622069E-03 -5.430403933034384E-04
2452764.500000000 = A.D. 2003-May-05 00:00:00.0000 TDB 
  -1.864536207040701E+01  1.942625536234662E+01 -8.326922312531165E+00
  -8.647431187656344E-04  1.843604046127454E-03 -5.424889079638725E-04
